[{"OBJECT_NAME":"STARLINK-5239","OBJECT_ID":"2022-141AC","EPOCH":"2025-12-08T05:11:36.898656","MEAN_MOTION":15.08849344,"ECCENTRICITY":0.00018614,"INCLINATION":53.2145,"RA_OF_ASC_NODE":54.376,"ARG_OF_PERICENTER":94.5016,"MEAN_ANOMALY":265.6189,"EPHEMERIS_TYPE":0,"CLASSIFICATION_TYPE":"U","NORAD_CAT_ID":54183,"ELEMENT_SET_NO":999,"REV_AT_EPOCH":17205,"BSTAR":8.4840178e-5,"MEAN_MOTION_DOT":1.063e-5,"MEAN_MOTION_DDOT":0},{"OBJECT_NAME":"STARLINK-5162","OBJECT_ID":"2022-141AD","EPOCH":"2025-12-07T11:49:11.106624","MEAN_MOTION":15.08850985,"ECCENTRICITY":0.00022524,"INCLINATION":53.2175,"RA_OF_ASC_NODE":58.3702,"ARG_OF_PERICENTER":94.3769,"MEAN_ANOMALY":265.748,"EPHEMERIS_TYPE":0,"CLASSIFICATION_TYPE":"U","NORAD_CAT_ID":54184,"ELEMENT_SET_NO":999,"REV_AT_EPOCH":17193,"BSTAR":0.00026714677,"MEAN_MOTION_DOT":3.967e-5,"MEAN_MOTION_DDOT":0},{"OBJECT_NAME":"STARLINK-5235","OBJECT_ID":"2022-141AE","EPOCH":"2025-12-08T05:27:32.334048","MEAN_MOTION":15.08839199,"ECCENTRICITY":0.00016563,"INCLINATION":53.2154,"RA_OF_ASC_NODE":54.4454,"ARG_OF_PERICENTER":93.3254,"MEAN_ANOMALY":266.7927,"EPHEMERIS_TYPE":0,"CLASSIFICATION_TYPE":"U","NORAD_CAT_ID":54185,"ELEMENT_SET_NO":999,"REV_AT_EPOCH":17205,"BSTAR":-1.8711515e-5,"MEAN_MOTION_DOT":-5.86e-6,"MEAN_MOTION_DDOT":0},{"OBJECT_NAME":"STARLINK-5240","OBJECT_ID":"2022-141AG","EPOCH":"2025-12-08T04:02:45.855456","MEAN_MOTION":15.08844181,"ECCENTRICITY":0.00015078,"INCLINATION":53.2165,"RA_OF_ASC_NODE":54.8009,"ARG_OF_PERICENTER":96.2709,"MEAN_ANOMALY":263.8455,"EPHEMERIS_TYPE":0,"CLASSIFICATION_TYPE":"U","NORAD_CAT_ID":54187,"ELEMENT_SET_NO":999,"REV_AT_EPOCH":17204,"BSTAR":-0.00018174744,"MEAN_MOTION_DOT":-3.18e-5,"MEAN_MOTION_DDOT":0},{"OBJECT_NAME":"STARLINK-5238","OBJECT_ID":"2022-141AH","EPOCH":"2025-12-08T04:46:32.103552","MEAN_MOTION":15.08838448,"ECCENTRICITY":0.00015334,"INCLINATION":53.2148,"RA_OF_ASC_NODE":44.9973,"ARG_OF_PERICENTER":73.6373,"MEAN_ANOMALY":286.4787,"EPHEMERIS_TYPE":0,"CLASSIFICATION_TYPE":"U","NORAD_CAT_ID":54188,"ELEMENT_SET_NO":999,"REV_AT_EPOCH":17218,"BSTAR":-0.00013949762,"MEAN_MOTION_DOT":-2.507e-5,"MEAN_MOTION_DDOT":0},{"OBJECT_NAME":"STARLINK-5281","OBJECT_ID":"2022-141AK","EPOCH":"2025-12-08T07:52:00.335424","MEAN_MOTION":15.08844899,"ECCENTRICITY":0.00017633,"INCLINATION":53.2172,"RA_OF_ASC_NODE":44.3793,"ARG_OF_PERICENTER":85.378,"MEAN_ANOMALY":274.7414,"EPHEMERIS_TYPE":0,"CLASSIFICATION_TYPE":"U","NORAD_CAT_ID":54190,"ELEMENT_SET_NO":999,"REV_AT_EPOCH":17220,"BSTAR":5.4338744e-5,"MEAN_MOTION_DOT":5.77e-6,"MEAN_MOTION_DDOT":0},{"OBJECT_NAME":"STARLINK-4619","OBJECT_ID":"2022-141AL","EPOCH":"2025-12-08T04:57:09.271584","MEAN_MOTION":15.08858557,"ECCENTRICITY":0.00024488,"INCLINATION":53.2188,"RA_OF_ASC_NODE":45.0449,"ARG_OF_PERICENTER":95.8055,"MEAN_ANOMALY":264.3216,"EPHEMERIS_TYPE":0,"CLASSIFICATION_TYPE":"U","NORAD_CAT_ID":54191,"ELEMENT_SET_NO":999,"REV_AT_EPOCH":17218,"BSTAR":0.00032528292,"MEAN_MOTION_DOT":4.895e-5,"MEAN_MOTION_DDOT":0},{"OBJECT_NAME":"STARLINK-5268","OBJECT_ID":"2022-141AM","EPOCH":"2025-12-07T21:26:38.008608","MEAN_MOTION":15.08840605,"ECCENTRICITY":0.00011821,"INCLINATION":53.2181,"RA_OF_ASC_NODE":45.9383,"ARG_OF_PERICENTER":51.179,"MEAN_ANOMALY":308.9308,"EPHEMERIS_TYPE":0,"CLASSIFICATION_TYPE":"U","NORAD_CAT_ID":54192,"ELEMENT_SET_NO":999,"REV_AT_EPOCH":17214,"BSTAR":0.00013963981,"MEAN_MOTION_DOT":1.935e-5,"MEAN_MOTION_DDOT":0},{"OBJECT_NAME":"STARLINK-5263","OBJECT_ID":"2022-141AN","EPOCH":"2025-12-08T07:41:24.239616","MEAN_MOTION":15.08848661,"ECCENTRICITY":0.00015305,"INCLINATION":53.2159,"RA_OF_ASC_NODE":44.3351,"ARG_OF_PERICENTER":90.6041,"MEAN_ANOMALY":269.5126,"EPHEMERIS_TYPE":0,"CLASSIFICATION_TYPE":"U","NORAD_CAT_ID":54193,"ELEMENT_SET_NO":999,"REV_AT_EPOCH":17220,"BSTAR":8.4553067e-5,"MEAN_MOTION_DOT":1.058e-5,"MEAN_MOTION_DDOT":0},{"OBJECT_NAME":"STARLINK-5271","OBJECT_ID":"2022-141AP","EPOCH":"2025-12-08T04:20:01.205664","MEAN_MOTION":15.08840756,"ECCENTRICITY":0.00014777,"INCLINATION":53.2214,"RA_OF_ASC_NODE":44.883,"ARG_OF_PERICENTER":76.5942,"MEAN_ANOMALY":283.5215,"EPHEMERIS_TYPE":0,"CLASSIFICATION_TYPE":"U","NORAD_CAT_ID":54194,"ELEMENT_SET_NO":999,"REV_AT_EPOCH":17218,"BSTAR":-6.6676772e-5,"MEAN_MOTION_DOT":-1.349e-5,"MEAN_MOTION_DDOT":0},{"OBJECT_NAME":"STARLINK-5258","OBJECT_ID":"2022-141AQ","EPOCH":"2025-12-08T07:46:42.521664","MEAN_MOTION":15.08848101,"ECCENTRICITY":0.00017627,"INCLINATION":53.2175,"RA_OF_ASC_NODE":44.3554,"ARG_OF_PERICENTER":77.4936,"MEAN_ANOMALY":282.6254,"EPHEMERIS_TYPE":0,"CLASSIFICATION_TYPE":"U","NORAD_CAT_ID":54195,"ELEMENT_SET_NO":999,"REV_AT_EPOCH":17220,"BSTAR":0.00012378957,"MEAN_MOTION_DOT":1.683e-5,"MEAN_MOTION_DDOT":0},{"OBJECT_NAME":"STARLINK-5237","OBJECT_ID":"2022-141AR","EPOCH":"2025-12-08T04:09:24.030720","MEAN_MOTION":15.08839654,"ECCENTRICITY":0.00014323,"INCLINATION":53.2174,"RA_OF_ASC_NODE":44.8366,"ARG_OF_PERICENTER":91.6583,"MEAN_ANOMALY":268.4573,"EPHEMERIS_TYPE":0,"CLASSIFICATION_TYPE":"U","NORAD_CAT_ID":54196,"ELEMENT_SET_NO":999,"REV_AT_EPOCH":17218,"BSTAR":5.8112596e-5,"MEAN_MOTION_DOT":6.37e-6,"MEAN_MOTION_DDOT":0},{"OBJECT_NAME":"STARLINK-5246","OBJECT_ID":"2022-141AT","EPOCH":"2025-12-08T04:04:06.140064","MEAN_MOTION":15.08835356,"ECCENTRICITY":0.00013273,"INCLINATION":53.2184,"RA_OF_ASC_NODE":44.8149,"ARG_OF_PERICENTER":84.9383,"MEAN_ANOMALY":275.1761,"EPHEMERIS_TYPE":0,"CLASSIFICATION_TYPE":"U","NORAD_CAT_ID":54198,"ELEMENT_SET_NO":999,"REV_AT_EPOCH":17218,"BSTAR":6.369016e-6,"MEAN_MOTION_DOT":-1.87e-6,"MEAN_MOTION_DDOT":0},{"OBJECT_NAME":"STARLINK-5244","OBJECT_ID":"2022-141AU","EPOCH":"2025-12-08T04:14:41.249184","MEAN_MOTION":15.08890512,"ECCENTRICITY":0.00013308,"INCLINATION":53.2199,"RA_OF_ASC_NODE":44.8592,"ARG_OF_PERICENTER":66.2909,"MEAN_ANOMALY":293.8223,"EPHEMERIS_TYPE":0,"CLASSIFICATION_TYPE":"U","NORAD_CAT_ID":54199,"ELEMENT_SET_NO":999,"REV_AT_EPOCH":17218,"BSTAR":-0.0020024001,"MEAN_MOTION_DOT":-0.00032058,"MEAN_MOTION_DDOT":0},{"OBJECT_NAME":"STARLINK-5250","OBJECT_ID":"2022-141AV","EPOCH":"2025-12-07T21:32:00.180384","MEAN_MOTION":15.08788711,"ECCENTRICITY":0.00014375,"INCLINATION":53.2187,"RA_OF_ASC_NODE":45.9582,"ARG_OF_PERICENTER":94.5717,"MEAN_ANOMALY":265.544,"EPHEMERIS_TYPE":0,"CLASSIFICATION_TYPE":"U","NORAD_CAT_ID":54200,"ELEMENT_SET_NO":999,"REV_AT_EPOCH":17214,"BSTAR":-0.00012585023,"MEAN_MOTION_DOT":-2.287e-5,"MEAN_MOTION_DDOT":0},{"OBJECT_NAME":"STARLINK-5199","OBJECT_ID":"2022-141AW","EPOCH":"2025-12-08T07:36:05.243904","MEAN_MOTION":15.08842159,"ECCENTRICITY":8.516e-5,"INCLINATION":53.2159,"RA_OF_ASC_NODE":44.3055,"ARG_OF_PERICENTER":85.2073,"MEAN_ANOMALY":274.9016,"EPHEMERIS_TYPE":0,"CLASSIFICATION_TYPE":"U","NORAD_CAT_ID":54201,"ELEMENT_SET_NO":999,"REV_AT_EPOCH":17220,"BSTAR":4.3871201e-5,"MEAN_MOTION_DOT":4.11e-6,"MEAN_MOTION_DDOT":0}]
