STARLINK-5239           
1 54183U 22141AC  25342.21639929  .00001063  00000+0  84840-4 0  9995
2 54183  53.2145  54.3760 0001861  94.5016 265.6189 15.08849344172057
STARLINK-5162           
1 54184U 22141AD  25341.49248966  .00003967  00000+0  26715-3 0  9993
2 54184  53.2175  58.3702 0002252  94.3769 265.7480 15.08850985171933
STARLINK-5235           
1 54185U 22141AE  25342.22745757 -.00000586  00000+0 -18712-4 0  9991
2 54185  53.2154  54.4454 0001656  93.3254 266.7927 15.08839199172052
STARLINK-5240           
1 54187U 22141AG  25342.16858629 -.00003180  00000+0 -18175-3 0  9994
2 54187  53.2165  54.8009 0001507  96.2709 263.8455 15.08844181172048
STARLINK-5238           
1 54188U 22141AH  25342.19898268 -.00002507  00000+0 -13950-3 0  9999
2 54188  53.2148  44.9973 0001533  73.6373 286.4787 15.08838448172188
STARLINK-5281           
1 54190U 22141AK  25342.32778166  .00000577  00000+0  54339-4 0  9991
2 54190  53.2172  44.3793 0001763  85.3780 274.7414 15.08844899172206
STARLINK-4619           
1 54191U 22141AL  25342.20635731  .00004895  00000+0  32528-3 0  9991
2 54191  53.2188  45.0449 0002448  95.8055 264.3216 15.08858557172180
STARLINK-5268           
1 54192U 22141AM  25341.89349547  .00001935  00000+0  13964-3 0  9998
2 54192  53.2181  45.9383 0001182  51.1790 308.9308 15.08840605172143
STARLINK-5263           
1 54193U 22141AN  25342.32041944  .00001058  00000+0  84553-4 0  9997
2 54193  53.2159  44.3351 0001530  90.6041 269.5126 15.08848661172208
STARLINK-5271           
1 54194U 22141AP  25342.18056951 -.00001349  00000+0 -66677-4 0  9998
2 54194  53.2214  44.8830 0001477  76.5942 283.5215 15.08840756172180
STARLINK-5258           
1 54195U 22141AQ  25342.32410326  .00001683  00000+0  12379-3 0  9993
2 54195  53.2175  44.3554 0001762  77.4936 282.6254 15.08848101172203
STARLINK-5237           
1 54196U 22141AR  25342.17319480  .00000637  00000+0  58113-4 0  9991
2 54196  53.2174  44.8366 0001432  91.6583 268.4573 15.08839654172185
STARLINK-5246           
1 54198U 22141AT  25342.16951551 -.00000187  00000+0  63690-5 0  9991
2 54198  53.2184  44.8149 0001327  84.9383 275.1761 15.08835356172182
STARLINK-5244           
1 54199U 22141AU  25342.17686631 -.00032058  00000+0 -20024-2 0  9991
2 54199  53.2199  44.8592 0001330  66.2909 293.8223 15.08890512172187
STARLINK-5250           
1 54200U 22141AV  25341.89722431 -.00002287  00000+0 -12585-3 0  9996
2 54200  53.2187  45.9582 0001437  94.5717 265.5440 15.08788711172147
STARLINK-5199           
1 54201U 22141AW  25342.31672736  .00000411  00000+0  43871-4 0  9995
2 54201  53.2159  44.3055 0000851  85.2073 274.9016 15.08842159172203
